QIANFAN-81              
1 63167U 25046J   25285.60869013  .00000081  00000+0  10685-3 0  9996
2 63167  88.9800 326.1995 0012671 301.0447  58.9460 13.50985465 39234
QIANFAN-82              
1 63168U 25046K   25285.56774681  .00000138  00000+0  19558-3 0  9999
2 63168  88.9800 326.2473 0010969 311.1450  48.8754 13.50968126 39218
QIANFAN-83              
1 63169U 25046L   25285.57404885  .00000185  00000+0  22475-3 0  9991
2 63169  88.9800 326.1431 0012010 297.3593  62.6342 13.61962427 39277
QIANFAN-84              
1 63170U 25046M   25285.59613262  .00000037  00000+0  38393-4 0  9999
2 63170  88.9800 326.3774 0013852 305.7513  54.2349 13.50985600 39148
QIANFAN-85              
1 63171U 25046N   25285.59244686  .00000168  00000+0  24220-3 0  9998
2 63171  88.9799 326.2497 0011289 309.6189  50.3965 13.50970947 39218
QIANFAN-86              
1 63172U 25046P   25285.60068855  .00000150  00000+0  21358-3 0  9993
2 63172  88.9801 326.1095 0009276 315.9290  44.1121 13.50967970 39297
QIANFAN-87              
1 63173U 25046Q   25282.68330257  .00000145  00000+0  20656-3 0  9991
2 63173  88.9804 326.5243 0010016 319.1660  40.8739 13.50979787 38837
QIANFAN-88              
1 63174U 25046R   25283.51451471  .00000149  00000+0  21299-3 0  9995
2 63174  88.9800 326.3915 0010557 325.4993  34.5472 13.50973338 38972
